{
  "type": "FeatureCollection",
  "features": [
    {
      "type": "Feature",
      "properties": {
        "norad_id": 38755,
        "name": "SPOT 6",
        "group": "resource",
        "lat": 45.930701906624876,
        "lon": 55.1991968822992,
        "alt_km": 693.1210977230976,
        "timestamp": "2025-12-25T03:55:55.963164+00:00",
        "meta_object_name": "SPOT 6",
        "meta_object_id": "2012-047A",
        "meta_epoch": "2025-12-24T19:29:14.349696",
        "meta_mean_motion": 14.58542159,
        "meta_eccentricity": 0.0001249,
        "meta_inclination": 98.1555,
        "meta_ra_of_asc_node": 63.3731,
        "meta_arg_of_pericenter": 77.3096,
        "meta_mean_anomaly": 282.8243,
        "meta_ephemeris_type": 0,
        "meta_classification_type": "U",
        "meta_norad_cat_id": 38755,
        "meta_element_set_no": 999,
        "meta_rev_at_epoch": 70763,
        "meta_bstar": 7.7899e-05,
        "meta_mean_motion_dot": 3.17e-06,
        "meta_mean_motion_ddot": 0,
        "tle_line1": "1 38755U 12047A   25358.81197164  .00000317  00000+0  77899-4 0  9996",
        "tle_line2": "2 38755  98.1555  63.3731 0001249  77.3096 282.8243 14.58542159707630"
      },
      "geometry": {
        "type": "Point",
        "coordinates": [
          55.1991968822992,
          45.930701906624876
        ]
      }
    },
    {
      "type": "Feature",
      "properties": {
        "norad_id": 39019,
        "name": "PLEIADES 1B",
        "group": "resource",
        "lat": -54.214424092436,
        "lon": 83.12629597513016,
        "alt_km": 705.4445449093464,
        "timestamp": "2025-12-25T03:55:55.963174+00:00",
        "meta_object_name": "PLEIADES 1B",
        "meta_object_id": "2012-068A",
        "meta_epoch": "2025-12-24T19:57:07.227360",
        "meta_mean_motion": 14.5856299,
        "meta_eccentricity": 0.0001151,
        "meta_inclination": 98.178,
        "meta_ra_of_asc_node": 71.2916,
        "meta_arg_of_pericenter": 85.293,
        "meta_mean_anomaly": 274.8401,
        "meta_ephemeris_type": 0,
        "meta_classification_type": "U",
        "meta_norad_cat_id": 39019,
        "meta_element_set_no": 999,
        "meta_rev_at_epoch": 69543,
        "meta_bstar": 6.8712e-05,
        "meta_mean_motion_dot": 2.74e-06,
        "meta_mean_motion_ddot": 0,
        "tle_line1": "1 39019U 12068A   25358.83133365  .00000274  00000+0  68712-4 0  9994",
        "tle_line2": "2 39019  98.1780  71.2916 0001151  85.2930 274.8401 14.58562990695430"
      },
      "geometry": {
        "type": "Point",
        "coordinates": [
          83.12629597513016,
          -54.214424092436
        ]
      }
    },
    {
      "type": "Feature",
      "properties": {
        "norad_id": 39030,
        "name": "GOKTURK 2",
        "group": "resource",
        "lat": -7.6777722742516925,
        "lon": 19.162605680500064,
        "alt_km": 647.9970506979234,
        "timestamp": "2025-12-25T03:55:55.963206+00:00",
        "meta_object_name": "GOKTURK 2",
        "meta_object_id": "2012-073A",
        "meta_epoch": "2025-12-24T20:34:24.412800",
        "meta_mean_motion": 14.75307554,
        "meta_eccentricity": 0.0001429,
        "meta_inclination": 97.6883,
        "meta_ra_of_asc_node": 199.9147,
        "meta_arg_of_pericenter": 106.7061,
        "meta_mean_anomaly": 253.4306,
        "meta_ephemeris_type": 0,
        "meta_classification_type": "U",
        "meta_norad_cat_id": 39030,
        "meta_element_set_no": 999,
        "meta_rev_at_epoch": 69880,
        "meta_bstar": 0.00013732,
        "meta_mean_motion_dot": 8.83e-06,
        "meta_mean_motion_ddot": 0,
        "tle_line1": "1 39030U 12073A   25358.85722700  .00000883  00000+0  13732-3 0  9999",
        "tle_line2": "2 39030  97.6883 199.9147 0001429 106.7061 253.4306 14.75307554698800"
      },
      "geometry": {
        "type": "Point",
        "coordinates": [
          19.162605680500064,
          -7.6777722742516925
        ]
      }
    },
    {
      "type": "Feature",
      "properties": {
        "norad_id": 39084,
        "name": "LANDSAT 8",
        "group": "resource",
        "lat": 49.77268891043088,
        "lon": 57.23108152171996,
        "alt_km": 697.4038245623078,
        "timestamp": "2025-12-25T03:55:55.963219+00:00",
        "meta_object_name": "LANDSAT 8",
        "meta_object_id": "2013-008A",
        "meta_epoch": "2025-12-24T19:27:39.727872",
        "meta_mean_motion": 14.57114233,
        "meta_eccentricity": 0.000106,
        "meta_inclination": 98.2056,
        "meta_ra_of_asc_node": 66.7054,
        "meta_arg_of_pericenter": 93.2027,
        "meta_mean_anomaly": 266.9293,
        "meta_ephemeris_type": 0,
        "meta_classification_type": "U",
        "meta_norad_cat_id": 39084,
        "meta_element_set_no": 999,
        "meta_rev_at_epoch": 67250,
        "meta_bstar": 9.7469e-05,
        "meta_mean_motion_dot": 3.94e-06,
        "meta_mean_motion_ddot": 0,
        "tle_line1": "1 39084U 13008A   25358.81087648  .00000394  00000+0  97469-4 0  9995",
        "tle_line2": "2 39084  98.2056  66.7054 0001060  93.2027 266.9293 14.57114233672502"
      },
      "geometry": {
        "type": "Point",
        "coordinates": [
          57.23108152171996,
          49.77268891043088
        ]
      }
    },
    {
      "type": "Feature",
      "properties": {
        "norad_id": 39086,
        "name": "SARAL",
        "group": "resource",
        "lat": 28.3252417670448,
        "lon": 178.28060962782072,
        "alt_km": 780.0324029848998,
        "timestamp": "2025-12-25T03:55:55.963230+00:00",
        "meta_object_name": "SARAL",
        "meta_object_id": "2013-009A",
        "meta_epoch": "2025-12-24T19:25:06.951936",
        "meta_mean_motion": 14.32761058,
        "meta_eccentricity": 0.000296,
        "meta_inclination": 98.5503,
        "meta_ra_of_asc_node": 182.582,
        "meta_arg_of_pericenter": 86.009,
        "meta_mean_anomaly": 274.1432,
        "meta_ephemeris_type": 0,
        "meta_classification_type": "U",
        "meta_norad_cat_id": 39086,
        "meta_element_set_no": 999,
        "meta_rev_at_epoch": 67063,
        "meta_bstar": 5.9338e-05,
        "meta_mean_motion_dot": 1.18e-06,
        "meta_mean_motion_ddot": 0,
        "tle_line1": "1 39086U 13009A   25358.80910824  .00000118  00000+0  59338-4 0  9995",
        "tle_line2": "2 39086  98.5503 182.5820 0002960  86.0090 274.1432 14.32761058670636"
      },
      "geometry": {
        "type": "Point",
        "coordinates": [
          178.28060962782072,
          28.3252417670448
        ]
      }
    },
    {
      "type": "Feature",
      "properties": {
        "norad_id": 39150,
        "name": "GAOFEN-1",
        "group": "resource",
        "lat": -39.4718302313172,
        "lon": 76.19478598534842,
        "alt_km": 657.5612486980854,
        "timestamp": "2025-12-25T03:55:55.963241+00:00",
        "meta_object_name": "GAOFEN-1",
        "meta_object_id": "2013-018A",
        "meta_epoch": "2025-12-24T19:58:50.973024",
        "meta_mean_motion": 14.76500366,
        "meta_eccentricity": 0.0018523,
        "meta_inclination": 97.9311,
        "meta_ra_of_asc_node": 69.2771,
        "meta_arg_of_pericenter": 106.3886,
        "meta_mean_anomaly": 253.9362,
        "meta_ephemeris_type": 0,
        "meta_classification_type": "U",
        "meta_norad_cat_id": 39150,
        "meta_element_set_no": 999,
        "meta_rev_at_epoch": 68251,
        "meta_bstar": 0.00014933,
        "meta_mean_motion_dot": 9.92e-06,
        "meta_mean_motion_ddot": 0,
        "tle_line1": "1 39150U 13018A   25358.83253441  .00000992  00000+0  14933-3 0  9996",
        "tle_line2": "2 39150  97.9311  69.2771 0018523 106.3886 253.9362 14.76500366682513"
      },
      "geometry": {
        "type": "Point",
        "coordinates": [
          76.19478598534842,
          -39.4718302313172
        ]
      }
    },
    {
      "type": "Feature",
      "properties": {
        "norad_id": 39160,
        "name": "VNREDSAT 1",
        "group": "resource",
        "lat": -44.87312431968135,
        "lon": -133.9799265510999,
        "alt_km": 684.6841971858375,
        "timestamp": "2025-12-25T03:55:55.963251+00:00",
        "meta_object_name": "VNREDSAT 1",
        "meta_object_id": "2013-021B",
        "meta_epoch": "2025-12-24T20:20:58.792416",
        "meta_mean_motion": 14.64939085,
        "meta_eccentricity": 0.0001185,
        "meta_inclination": 97.9353,
        "meta_ra_of_asc_node": 53.6975,
        "meta_arg_of_pericenter": 81.3151,
        "meta_mean_anomaly": 278.8187,
        "meta_ephemeris_type": 0,
        "meta_classification_type": "U",
        "meta_norad_cat_id": 39160,
        "meta_element_set_no": 999,
        "meta_rev_at_epoch": 67476,
        "meta_bstar": 9.0349e-05,
        "meta_mean_motion_dot": 4.38e-06,
        "meta_mean_motion_ddot": 0,
        "tle_line1": "1 39160U 13021B   25358.84790269  .00000438  00000+0  90349-4 0  9997",
        "tle_line2": "2 39160  97.9353  53.6975 0001185  81.3151 278.8187 14.64939085674766"
      },
      "geometry": {
        "type": "Point",
        "coordinates": [
          -133.9799265510999,
          -44.87312431968135
        ]
      }
    }
  ]
}